{
    "links": {
        "self": "http://www.neowsapp.com/rest/v1/neo/3716472?api_key=iIulBulltgU6a56xZRHN4H3l9WmuAYTsLGpBGhQ2"
    },
    "id": "3716472",
    "neo_reference_id": "3716472",
    "name": "(2015 HB9)",
    "designation": "2015 HB9",
    "nasa_jpl_url": "http://ssd.jpl.nasa.gov/sbdb.cgi?sstr=3716472",
    "absolute_magnitude_h": 24.8,
    "estimated_diameter": {
        "kilometers": {
            "estimated_diameter_min": 0.0291443905,
            "estimated_diameter_max": 0.0651688382
        },
        "meters": {
            "estimated_diameter_min": 29.1443904535,
            "estimated_diameter_max": 65.1688382168
        },
        "miles": {
            "estimated_diameter_min": 0.018109479,
            "estimated_diameter_max": 0.0404940262
        },
        "feet": {
            "estimated_diameter_min": 95.6180819754,
            "estimated_diameter_max": 213.8085311752
        }
    },
    "is_potentially_hazardous_asteroid": false,
    "close_approach_data": [
        {
            "close_approach_date": "2015-04-11",
            "close_approach_date_full": "2015-Apr-11 16:10",
            "epoch_date_close_approach": 1428768600000,
            "relative_velocity": {
                "kilometers_per_second": "10.5336740342",
                "kilometers_per_hour": "37921.2265230318",
                "miles_per_hour": "23562.7754470472"
            },
            "miss_distance": {
                "astronomical": "0.0369854285",
                "lunar": "14.3873316865",
                "kilometers": "5532941.324637295",
                "miles": "3438010.316472871"
            },
            "orbiting_body": "Earth"
        }
    ],
    "orbital_data": {
        "orbit_id": "8",
        "orbit_determination_date": "2017-04-06 08:34:16",
        "first_observation_date": "2015-04-19",
        "last_observation_date": "2015-05-11",
        "data_arc_in_days": 22,
        "observations_used": 53,
        "orbit_uncertainty": "8",
        "minimum_orbit_intersection": ".0333311",
        "jupiter_tisserand_invariant": "3.532",
        "epoch_osculation": "2457135.5",
        "eccentricity": ".5525305352316571",
        "semi_major_axis": "2.100434444556239",
        "inclination": "5.345566242857505",
        "ascending_node_longitude": "217.926905437864",
        "orbital_period": "1111.890767789298",
        "perihelion_distance": ".9398802766865719",
        "perihelion_argument": "303.4081749167174",
        "aphelion_distance": "3.260988612425906",
        "perihelion_time": "2457093.539585316912",
        "mean_anomaly": "13.58564143485559",
        "mean_motion": ".3237728115287486",
        "equinox": "J2000",
        "orbit_class": {
            "orbit_class_type": "APO",
            "orbit_class_description": "Near-Earth asteroid orbits which cross the Earth’s orbit similar to that of 1862 Apollo",
            "orbit_class_range": "a (semi-major axis) > 1.0 AU; q (perihelion) < 1.017 AU"
        }
    },
    "is_sentry_object": false
}